0 SL-8 R/B
1 12804U 81087B   19129.25999087  .00000076  00000-0  49669-4 0  9991
2 12804  82.9313 178.4614 0041699 331.3593  95.1528 13.89325608909317
0 COSMOS 931 DEB
1 12815U 77068E   19129.50147789  .00000569  00000-0  00000+0 0  9997
2 12815  68.9252  63.3375 5713461  23.1691  32.6475  2.01188320 99568
0 COSMOS 1124 DEB
1 12816U 79077F   19129.13701759  .00000104  00000-0  00000+0 0  9997
2 12816  66.1496 280.8989 6176502  64.6433 330.0295  2.11968275299507
0 COSMOS 1124 DEB
1 12816U 79077F   19127.25355580  .00000104  00000-0  00000+0 0  9995
2 12816  66.1485 281.0687 6178701  64.6906 332.7603  2.11970913299460
0 DELTA 1 DEB
1 12825U 78026EW  19129.34415788  .00000093  00000-0  10457-3 0  9995
2 12825  99.3684 270.8297 0059934 306.6587 115.0325 13.93808007943371
0 COSMOS 1308
1 12835U 81091A   19129.12338472  .00000026  00000-0  10899-4 0  9999
2 12835  82.9167 305.5457 0028623 137.5424   0.1873 13.75398289888895
0 AUREOLE 3
1 12848U 81094A   19129.66299490  .00000452  00000-0  26137-4 0  9996
2 12848  82.4851  45.8931 0594760 241.1826 112.8417 14.24382190887964
0 SL-14 R/B
1 12849U 81094B   19129.13799069  .00000216  00000-0  17828-4 0  9991
2 12849  82.4935 356.3683 0901782 356.7686   2.7854 13.50505710835176
0 SL-12 R/B(2)
1 12850U 81069F   19129.48949927 -.00000067  00000-0  00000+0 0  9997
2 12850  13.6765 324.7518 0020443 111.8970  63.5757  0.97698593 90992
0 TANSEI 3 DEB
1 12857U 77012H   19128.94433704 -.00000050  00000-0 -46715-4 0  9999
2 12857  66.2885 166.2017 1701741  18.1102  28.1365 10.77623153491900
0 SCOUT D-1 DEB
1 12858U 77106C   19129.16658053  .00000051  00000-0  64802-4 0  9991
2 12858  89.4756 120.7419 0018599  28.8538 103.9702 13.48630993942019
0 COSMOS 970 DEB
1 12860U 77121AN  19129.41005598 -.00000016  00000-0  75913-4 0  9996
2 12860  65.8078 179.1018 0120188 129.6925 323.6990 13.62622982957941
0 COSMOS 970 DEB
1 12862U 77121AQ  19129.61851269  .00000124  00000-0  11506-3 0  9990
2 12862  66.2099 296.3033 0158667 303.2415 129.5724 14.05405367  1422
0 COSMOS 970 DEB
1 12863U 77121AR  19129.01358778  .00000175  00000-0  30673-3 0  9994
2 12863  65.7853 329.3760 0072094 238.3396 276.6070 13.65347418954415
0 COSMOS 970 DEB
1 12864U 77121AS  19129.04076462  .00000214  00000-0  23836-3 0  9992
2 12864  65.8339 335.1608 0104419 220.4925 297.0468 13.88184145957770
0 COSMOS 970 DEB
1 12866U 77121AU  19129.18314038 -.00000049  00000-0  37768-4 0  9990
2 12866  65.8163  99.8840 0103274 169.0342 287.6170 13.57825975951765
0 COSMOS 970 DEB
1 12867U 77121AV  19129.72790272  .00000021  00000-0  17714-3 0  9996
2 12867  65.9495 240.2683 0086780 347.0691 128.7334 13.35952151974090
0 COSMOS 970 DEB
1 12868U 77121AW  19129.13492729  .00000186  00000-0  29424-3 0  9991
2 12868  65.7641 120.3642 0073594 251.5384 185.9292 13.70545592 56097
0 COSMOS 970 DEB
1 12869U 77121AX  19129.30007071  .00000106  00000-0  19605-3 0  9995
2 12869  65.7913 235.5909 0079516 123.8975 268.7488 13.73531271 62751
0 COSMOS 1312
1 12879U 81098A   19129.22144771  .00000020  00000-0  74851-4 0  9994
2 12879  82.6041  18.1197 0007810  22.6324  93.2178 12.42349925705397
0 COSMOS 1261 DEB
1 12893U 81031F   19128.62931790 -.00000083  00000-0  00000+0 0  9995
2 12893  65.2664 256.6004 6229732  52.2253 349.3505  2.01094871259868
0 RADUGA 10
1 12897U 81102A   19129.05384316 -.00000075  00000-0  00000+0 0  9993
2 12897  12.3328 321.3595 0002447 116.2442 240.9516  1.00248991 91374
0 SL-3 R/B
1 12904U 81103B   19129.67004674  .00000054  00000-0  21186-5 0  9997
2 12904  81.1781 205.5914 0027166 311.3513  48.5373 15.05648365596866
0 COSMOS 931 DEB
1 12906U 77068F   19129.25502432 -.00000724  00000-0  00000+0 0  9994
2 12906  63.2502 250.2121 6722235  43.3712 355.8059  2.01248230284379
0 TITAN 3C TRANSTAGE R/B
1 12932U 81107C   19129.07717536 -.00000294  00000-0  00000+0 0  9997
2 12932   6.6083 345.5792 1018047  92.2865 279.2794  0.99592183   354
0 COSMOS 1275 DEB
1 12949U 81053ED  19129.18923817  .00000210  00000-0  15032-3 0  9990
2 12949  82.8470  22.2801 0029699 325.3084 158.7569 13.92559608899444
0 COSMOS 1275 DEB
1 12950U 81053EE  19128.98318484  .00000195  00000-0  95024-4 0  9999
2 12950  83.0099 311.8698 0056418 113.9156  39.0402 14.12242206934136
0 COSMOS 1275 DEB
1 12952U 81053EG  19129.26379834  .00000269  00000-0  18841-3 0  9992
2 12952  82.9606 161.2988 0012093  99.5173  17.6337 13.94845551900861
0 COSMOS 1275 DEB
1 12962U 81053EH  19129.24250309  .00000261  00000-0  17721-3 0  9994
2 12962  82.9679 206.4614 0030488 103.1325 310.9808 13.96292141897870
0 COSMOS 1320
1 12975U 81116A   19129.45220008 -.00000024  00000-0 -82820-4 0  9996
2 12975  73.9789 139.9822 0096179  47.0172 106.3139 12.28011546678741
0 COSMOS 1322
1 12977U 81116C   19129.43084279 -.00000020  00000-0 -44319-4 0  9991
2 12977  73.9790 117.2731 0092824  21.8069  89.3129 12.28694762679669
0 COSMOS 1323
1 12978U 81116D   19129.22935078 -.00000022  00000-0 -61288-4 0  9997
2 12978  73.9798 102.1259 0089834   6.4894 119.1477 12.29173498680296
0 COSMOS 1324
1 12979U 81116E   19129.35383752 -.00000010  00000-0  43503-4 0  9994
2 12979  73.9820  84.2213 0087543 345.3789 128.4193 12.29704914681041
0 COSMOS 1327
1 12982U 81116H   19129.69366101 -.00000015  00000-0  91090-5 0  9994
2 12982  73.9854  20.9621 0077211 274.9515 145.5807 12.31611980683695
0 SL-8 R/B
1 12983U 81116J   19129.17185089  .00000049  00000-0  56711-3 0  9997
2 12983  73.9842 248.4736 0114601 160.2013 240.7847 12.24776403408783
0 COSMOS 1247 DEB
1 12984U 81016F   19129.09324778 -.00000487  00000-0  00000+0 0  9991
2 12984  66.7261 209.2809 6219139  38.6724   2.7427  2.02665347277334
0 SL-14 R/B
1 12988U 81117B   19129.16735970  .00000048  00000-0  27983-5 0  9992
2 12988  82.5224 145.1845 0019697  85.3041 318.7897 14.84733777 22349
0 RADIO 7
1 13001U 81120E   19129.18753233 -.00000044  00000-0 -59540-3 0  9997
2 13001  82.9617   4.2742 0023948 337.9541 140.8288 12.08902639649995
0 RADIO 6
1 13002U 81120F   19129.37937885 -.00000024  00000-0 -35107-3 0  9997
2 13002  82.9563 294.0678 0052152  65.1460 302.0976 12.13797140656733
0 SL-8 R/B
1 13003U 81120G   19129.17670828  .00000059  00000-0  68275-3 0  9995
2 13003  82.9556 245.8053 0081227 340.3276  67.9384 11.91504517626427
0 COSMOS 1275 DEB
1 13017U 81053EP  19129.43904976  .00000304  00000-0  21076-3 0  9999
2 13017  82.9291 134.2510 0033460 169.8990 350.5218 13.95539606894810
0 COSMOS 1275 DEB
1 13018U 81053EQ  19129.36941965  .00000271  00000-0  20486-3 0  9998
2 13018  82.6765 256.3143 0056477 132.5642 281.4222 13.89783677884544
0 COSMOS 1275 DEB
1 13021U 81053ET  19129.35012493  .00000433  00000-0  28823-3 0  9999
2 13021  83.1475  80.7956 0021479 240.5565 238.6910 13.99029998896395
0 COSMOS 1275 DEB
1 13024U 81053EW  19129.71019885  .00000368  00000-0  23795-3 0  9994
2 13024  82.9263 114.8043 0053118  90.5578  30.7987 13.99587862896842
0 COSMOS 1275 DEB
1 13026U 81053EX  19129.17229597  .00000797  00000-0  27983-3 0  9998
2 13026  82.9402 188.5056 0017267  25.2247  38.4654 14.33863015920529
0 SL-8 R/B
1 13028U 82001B   19129.59477017  .00000046  00000-0  23532-4 0  9996
2 13028  74.0421 194.9095 0018560 105.1892 255.1316 14.38369951956548
0 SL-8 DEB
1 13030U 82001D   19129.46343839  .00000449  00000-0  61390-4 0  9990
2 13030  74.0223  48.0219 0014294 230.6903 253.2835 14.81809323984495
0 COSMOS 1333
1 13033U 82003A   19128.93164950  .00000052  00000-0  39645-4 0  9999
2 13033  82.9397 283.1533 0031689 209.0699 262.0551 13.73217959870123
0 SL-8 R/B
1 13066U 82012B   19129.21838650  .00000010  00000-0 -52633-5 0  9990
2 13066  82.8985  63.2436 0044898 101.8080   6.9413 13.77217993870325
0 MOLNIYA 1-53
1 13070U 82015A   19128.74975245 -.00000206  00000-0  64231-4 0  9990
2 13070  62.5056  30.1866 7511131 270.2960  12.8003  2.00689880272462
0 COSMOS 1275 DEB
1 13074U 81053FA  19129.61462451  .00000160  00000-0  13541-3 0  9997
2 13074  82.9449 325.6058 0031094  23.0562  43.8234 13.81643665898054
0 INTELSAT 504
1 13083U 82017A   19129.39012611 -.00000027  00000-0  00000+0 0  9997
2 13083  14.6209 348.3039 0016216 190.5965  29.3911  0.99227712116035
0 OPS 8701
1 13086U 82019A   19129.13302095 -.00000023  00000-0  00000+0 0  9998
2 13086  14.1923 332.3276 0002901 327.1304  32.8012  0.98188443   166
0 COSMOS 1344
1 13110U 82024A   19129.71417106  .00000032  00000-0  18291-4 0  9991
2 13110  82.9244 183.6350 0028841  14.4185 104.7475 13.73992473861314
0 METEOR 2-8
1 13113U 82025A   19129.19648520  .00000016  00000-0  10424-5 0  9996
2 13113  82.5411   6.7841 0017405 342.4841 134.4978 13.85385047876462
0 SL-14 R/B
1 13114U 82025B   19129.73837934  .00000022  00000-0  60890-5 0  9995
2 13114  82.5422  12.4877 0014816  13.1016  43.9074 13.84671197876113
0 SL-3 R/B
1 13121U 82027B   19129.68910640  .00000108  00000-0  52190-5 0  9994
2 13121  81.1638  44.5211 0033358  48.2123 312.1942 15.08697883 21242
0 INSAT 1A
1 13129U 82031A   19129.49220356 -.00000362  00000-0  00000+0 0  9994
2 13129  12.5801 323.9691 0014115  19.4408 172.1622  1.00219966140400
0 N-1 DEB
1 13132U 78018C   19129.20428566 -.00000041  00000-0  17714-4 0  9999
2 13132  69.2069 330.4823 0210789 317.4036 154.4382 13.34799937  7243
0 COSMOS 1354
1 13148U 82037A   19129.21487364 -.00000010  00000-0  61792-5 0  9996
2 13148  74.0367 161.2994 0010448 243.8184 116.1892 14.31893695933399
0 COSMOS 1356
1 13153U 82039A   19129.56801193  .00001821  00000-0  46679-4 0  9998
2 13153  81.0884 129.9077 0001922 188.4531 171.6678 15.38830865 25834
0 SL-3 R/B
1 13154U 82039B   19129.66561218  .00000207  00000-0  15140-4 0  9997
2 13154  81.1831 169.5946 0039742 198.2371 161.7426 14.98618437  7290
